INTELSAT 902 (IS-902)   
1 26900U 01039A   26191.48563339 -.00000279  00000+0  00000+0 0  9997
2 26900   6.1741  71.4977 0004425  34.7826 306.8480  1.00271489 90929
INTELSAT 904 (IS-904)   
1 27380U 02007A   26191.48936007 -.00000222  00000+0  00000+0 0  9990
2 27380   6.9752  68.9011 0005441  22.8518 341.3603  1.00271875 52004
DIRECTV 5 (TEMPO 1)     
1 27426U 02023A   26191.30802150 -.00000051  00000+0  00000+0 0  9991
2 27426   4.9338  75.0208 0003043  39.1246 174.8663  1.00271025 88354
INTELSAT 905 (IS-905)   
1 27438U 02027A   26191.44350310  .00000097  00000+0  00000+0 0  9998
2 27438   6.8089  69.5162 0003650  41.2158 200.0963  1.00274751 51598
GALAXY 3C (G-3C)        
1 27445U 02030A   26191.36347307 -.00000146  00000+0  00000+0 0  9999
2 27445   3.7903  77.6748 0001536  38.3275 208.3094  1.00270956 46723
INTELSAT 906 (IS-906)   
1 27513U 02041A   26191.19955841  .00000018  00000+0  00000+0 0  9993
2 27513   5.8592  72.6383 0003959  18.7055 332.7527  1.00272124 87250
GALAXY 13 (HORIZONS-1)  
1 27954U 03044A   26191.53719076  .00000141  00000+0  00000+0 0  9999
2 27954   1.4780  83.5671 0002204  21.0209 227.2595  1.00269249 46804
INTELSAT 10-02          
1 28358U 04022A   26191.56657090 -.00000002  00000+0  00000+0 0  9992
2 28358   0.0515 260.5661 0000380 348.7370 242.1457  1.00269129 80797
DIRECTV 8               
1 28659U 05019A   26191.47202666  .00000011  00000+0  00000+0 0  9997
2 28659   0.0150  71.6501 0003043  51.6627 215.9592  1.00270861 77300
GALAXY 28 (G-28)        
1 28702U 05022A   26191.49014008 -.00000193  00000+0  00000+0 0  9995
2 28702   3.3554  78.6447 0002149  35.4139 323.7040  1.00272125 52206
GALAXY 16 (G-16)        
1 29236U 06023A   26191.47601333 -.00000117  00000+0  00000+0 0  9997
2 29236   0.0341 118.1796 0002461 359.0794 243.5028  1.00271461 73203
DIRECTV 9S              
1 29494U 06043A   26191.62591616 -.00000106  00000+0  00000+0 0  9992
2 29494   2.4783  80.6201 0005014  31.8882 300.1670  1.00270968 51614
GALAXY 17 (G-17)        
1 31307U 07016B   26191.55001750 -.00000199  00000+0  00000+0 0  9998
2 31307   3.0278  79.6059 0003581  31.4253 290.4239  1.00271070 70034
INTELSAT 11 (IS-11)     
1 32253U 07044B   26191.35734962 -.00000032  00000+0  00000+0 0  9992
2 32253   3.6226  78.3886 0003985  99.1520 263.2343  0.99050526 68684
HORIZONS-2              
1 32388U 07063B   26191.55227084 -.00000246  00000+0  00000+0 0  9993
2 32388   2.6594  80.3399 0003591  17.2436 315.9146  1.00270785 68042
DIRECTV 11              
1 32729U 08013A   26191.35275024 -.00000115  00000+0  00000+0 0  9998
2 32729   0.0387 212.3876 0000247 324.0727 139.6181  1.00270623 45829
GALAXY 18 (G-18)        
1 32951U 08024A   26191.63424444  .00000000  00000+0  00000+0 0  9992
2 32951   0.0252  38.3327 0002769  86.0431 269.5100  1.00270137 46085
GALAXY 19 (G-19)        
1 33376U 08045A   26191.54767748 -.00000129  00000+0  00000+0 0  9997
2 33376   0.0543 249.8758 0002352 227.7725 270.9740  1.00272388 65138
FM-5                    
1 35493U 09034A   26191.31906358 -.00000189  00000+0  00000+0 0  9991
2 35493   0.0334 277.7695 0000348  38.0404   1.1277  1.00270176 46870
INTELSAT 14 (IS-14)     
1 36097U 09064A   26191.48667339 -.00000263  00000+0  00000+0 0  9999
2 36097   0.0185  22.6412 0002266  92.1709 303.8111  1.00271724 60830
INTELSAT 15 (IS-15)     
1 36106U 09067A   26191.55878071 -.00000175  00000+0  00000+0 0  9990
2 36106   0.0128  45.3490 0002129  71.5116  97.9328  1.00271527 41467
DIRECTV 12              
1 36131U 09075A   26191.40395524 -.00000093  00000+0  00000+0 0  9997
2 36131   0.0378 197.5077 0000394  15.9281 117.5818  1.00270757 46787
INTELSAT 16 (IS-16)     
1 36397U 10006A   26191.55175083 -.00000235  00000+0  00000+0 0  9997
2 36397   0.0117  14.5260 0002260 117.4552 278.9210  1.00271500 59887
XM-5                    
1 37185U 10053A   26191.30635405 -.00000012  00000+0  00000+0 0  9990
2 37185   0.0614 268.0589 0001858 315.7617  59.5021  1.00272157 57714
INTELSAT 17 (IS-17)     
1 37238U 10065B   26191.61086194  .00000008  00000+0  00000+0 0  9995
2 37238   0.0162  88.5622 0002668  23.9194 101.9504  1.00271739 53485
INTELSAT 28 (IS-28)     
1 37392U 11016A   26191.44781787 -.00000217  00000+0  00000+0 0  9997
2 37392   1.8633  82.3344 0003697  37.2743 298.2524  1.00272240 53516
INTELSAT 18 (IS-18)     
1 37834U 11056A   26191.53129740  .00000063  00000+0  00000+0 0  9995
2 37834   0.0285 282.3031 0001733 203.6302 173.7835  1.00272681 54045
INTELSAT 22 (IS-22)     
1 38098U 12011A   26191.58117424  .00000000  00000+0  00000+0 0  9992
2 38098   0.0364  66.1563 0001895  64.8545  78.7989  1.00271114  7423
INTELSAT 19 (IS-19)     
1 38356U 12030A   26190.88691154 -.00000044  00000+0  00000+0 0  9998
2 38356   0.0177  25.6635 0003126  96.1223 291.3213  1.00271536 50678
INTELSAT 20 (IS-20)     
1 38740U 12043A   26190.98725301  .00000000  00000+0  00000+0 0  9993
2 38740   0.0436  68.8286 0003359 128.7460 154.2151  1.00267370 50979
INTELSAT 21 (IS-21)     
1 38749U 12045A   26191.48407338  .00000000  00000+0  00000+0 0  9997
2 38749   0.0274  37.8747 0001728  97.2713 269.5240  1.00270104 50759
INTELSAT 23 (IS-23)     
1 38867U 12057A   26191.06250187 -.00000273  00000+0  00000+0 0  9996
2 38867   0.0141  34.5412 0000462 184.3558  38.5923  1.00269710 50185
FM-6                    
1 39360U 13058A   26191.54386413 -.00000006  00000+0  00000+0 0  9996
2 39360   0.0174  39.3029 0001280 137.9736 190.6257  1.00269783 46307
INTELSAT 30 (IS-30)     
1 40271U 14062A   26191.26289811 -.00000140  00000+0  00000+0 0  9997
2 40271   0.0192  51.4260 0001237 336.2755 260.0814  1.00271243  7020
DIRECTV 14              
1 40333U 14078B   26191.62530064 -.00000116  00000+0  00000+0 0  9995
2 40333   0.0097  22.1783 0000268 296.2025  96.0342  1.00269904 42276
DIRECTV 15              
1 40663U 15026A   26191.47523333 -.00000093  00000+0  00000+0 0  9993
2 40663   0.0194  72.3901 0000111 163.9672 120.2514  1.00272881 40697
SKY MEXICO-1            
1 40664U 15026B   26191.55131750 -.00000224  00000+0  00000+0 0  9997
2 40664   0.0052  42.6285 0002300  91.7989 273.7228  1.00271340 40681
INTELSAT 34 (IS-34)     
1 40874U 15039A   26191.05688244 -.00000274  00000+0  00000+0 0  9999
2 40874   0.0101  16.1720 0000122 324.1781 272.6171  1.00270657 39865
INTELSAT 31 (IS-31)     
1 41581U 16035A   26191.26289811 -.00000140  00000+0  00000+0 0  9994
2 41581   0.0186 278.5787 0001013 347.5471  21.6525  1.00271183 36919
INTELSAT 36 (IS-36)     
1 41747U 16053A   26191.17525213 -.00000013  00000+0  00000+0 0  9996
2 41747   0.0102 354.9716 0002514 346.8192  77.8966  1.00268599 36189
INTELSAT 32E (IS-32E)   
1 41945U 17007B   26191.13065417  .00000000  00000+0  00000+0 0  9992
2 41945   0.0258  33.0821 0000341 235.9737  22.8541  1.00267562 34458
INTELSAT 35E (IS-35E)   
1 42818U 17041A   26191.48875340 -.00000228  00000+0  00000+0 0  9995
2 42818   0.0032 111.0474 0001571 358.6024 320.2234  1.00270458 33043
INTELSAT 37E (IS-37E)   
1 42950U 17059A   26191.42076866 -.00000131  00000+0  00000+0 0  9994
2 42950   0.0177  47.3723 0002523  69.5596 304.8910  1.00270770 32290
AZERSPACE 2 (IS-38)     
1 43632U 18074A   26191.57584428  .00000000  00000+0  00000+0 0  9998
2 43632   0.0262  31.9142 0001204  92.5801  56.4227  1.00270567 28680
HORIZONS-3E             
1 43633U 18074B   26190.81617841 -.00000018  00000+0  00000+0 0  9991
2 43633   0.0363 213.3135 0000781  67.3154 109.9513  1.00272318 28566
AT&T T-16               
1 44333U 19034A   26190.90528495 -.00000103  00000+0  00000+0 0  9997
2 44333   0.0147  67.1818 0000718 252.0909 193.6074  1.00271911 25868
INTELSAT 39 (IS-39)     
1 44476U 19049B   26191.61086194  .00000000  00000+0  00000+0 0  9990
2 44476   0.0260  33.2776 0000909 285.7351 251.3790  1.00270540 25364
GALAXY 30 (G-30)        
1 46114U 20056C   26191.63493071  .00000000  00000+0  00000+0 0  9999
2 46114   0.0273  37.5583 0001921  75.5966 278.9728  1.00270453 21527
GALAXY 33 (G-33)        
1 54026U 22128A   26191.63768119  .00000088  00000+0  00000+0 0  9996
2 54026   0.0156  15.8890 0001783 101.2656 267.9683  1.00270725 13977
GALAXY 34 (G-34)        
1 54027U 22128B   26191.63630854  .00000068  00000+0  00000+0 0  9999
2 54027   0.0116  33.6569 0001458  82.9540 272.0146  1.00271762 14144
GALAXY 31 (G-31)        
1 54243U 22153A   26191.63355928  .00000000  00000+0  00000+0 0  9999
2 54243   0.0206  47.1412 0000922  76.2843 272.2042  1.00269885  7364
GALAXY 32 (G-32)        
1 54244U 22153B   26191.26376478 -.00000163  00000+0  00000+0 0  9993
2 54244   0.0095  29.5174 0001507  17.2587 245.3708  1.00271315 13379
GALAXY 35 (G-35)        
1 54741U 22170A   26191.62252681  .00000000  00000+0  00000+0 0  9992
2 54741   0.0172  35.5452 0001858  80.5584 303.4466  1.00269569 13120
GALAXY 36 (G-36)        
1 54742U 22170B   26191.54923749 -.00000175  00000+0  00000+0 0  9998
2 54742   0.0266 116.6909 0002406 342.5107 297.9972  1.00271449 13001
GALAXY 37 (G-37)        
1 57493U 23112A   26191.63561995  .00000058  00000+0  00000+0 0  9991
2 57493   0.0119  61.5505 0001778  53.2194 275.6072  1.00270423 10773
